{
"type": "FeatureCollection",
"name": "correct-locations-kowel",
"crs": { "type": "name", "properties": { "name": "urn:ogc:def:crs:EPSG::32635" } },
"features": [
{"type":"Feature","properties":{"id":null,"name":"A.10: Brzeska Synagogue"},"geometry":{"type":"Point","coordinates":[338893.095826536999084,5676349.580115925520658]}},
{"type":"Feature","properties":{"id":null,"name":"A7:Talmud Tora"},"geometry":{"type":"Point","coordinates":[338865.005482983775437,5676422.099202310666442]}},
{"type":"Feature","properties":{"id":null,"name":"A5: Dom modlitwy chasydow ruz."},"geometry":{"type":"Point","coordinates":[338999.496745774988085,5676416.296721320599318]}},
{"type":"Feature","properties":{"id":null,"name":"A8: \"Chasidej Satpan\" synagogue"},"geometry":{"type":"Point","coordinates":[338967.373522114707157,5676478.142786854878068]}},
{"type":"Feature","properties":{"id":null,"name":"A1: Great Synagogue"},"geometry":{"type":"Point","coordinates":[339021.841046564513817,5676488.811623404733837]}},
{"type":"Feature","properties":{"id":null,"name":"A3: Dwór i synagoga robina z."},"geometry":{"type":"Point","coordinates":[338705.916506276116706,5676779.387116062454879]}},
{"type":"Feature","properties":{"id":null,"name":"B2: Żydowska Szkoła Ludowa im."},"geometry":{"type":"Point","coordinates":[338792.522421259665862,5676908.163300876505673]}},
{"type":"Feature","properties":{"id":null,"name":"A9: Chajacim Synagogue"},"geometry":{"type":"Point","coordinates":[338812.445726369624026,5676671.092096497304738]}},
{"type":"Feature","properties":{"id":null,"name":"L1: Miejsce przeprowadzenia"},"geometry":{"type":"Point","coordinates":[338974.464550629490986,5676774.154546601697803]}},
{"type":"Feature","properties":{"id":null,"name":"F1:Cierkiew ruska"},"geometry":{"type":"Point","coordinates":[339114.344061099691316,5676607.89036781527102]}},
{"type":"Feature","properties":{"id":null,"name":"K3:Fields"},"geometry":{"type":"Point","coordinates":[339325.599048103671521,5676713.634542940184474]}},
{"type":"Feature","properties":{"id":null,"name":"K2: Pola i niwy"},"geometry":{"type":"Point","coordinates":[339118.877713249297813,5676213.52903504576534]}},
{"type":"Feature","properties":{"id":null,"name":"D3: Stadion piłkarski \"Maccabi\""},"geometry":{"type":"Point","coordinates":[339455.835366064333357,5676683.221829069778323]}},
{"type":"Feature","properties":{"id":null,"name":"K5: Plaża, miejsce na piknik"},"geometry":{"type":"Point","coordinates":[339379.447532740188763,5676495.204749777913094]}},
{"type":"Feature","properties":{"id":null,"name":"B4:Gimnazjum Żydowskie \"Tarbuk\""},"geometry":{"type":"Point","coordinates":[339531.194718673243187,5676496.645123301073909]}},
{"type":"Feature","properties":{"id":null,"name":"H2: Kino Ekspres"},"geometry":{"type":"Point","coordinates":[339790.438337607658468,5676126.802647940814495]}},
{"type":"Feature","properties":{"id":null,"name":"D3: Stadion piłkarski \"Maccabi\""},"geometry":{"type":"Point","coordinates":[339782.199607627349906,5676074.383555022068322]}},
{"type":"Feature","properties":{"id":null,"name":"J1:Rynek Miejski"},"geometry":{"type":"Point","coordinates":[339693.226384361449163,5676159.600863128900528]}},
{"type":"Feature","properties":{"id":null,"name":"N4: Dom żydowski znakiem Gwiazda Dawida"},"geometry":{"type":"Point","coordinates":[339643.155658468662295,5676095.320260677486658]}},
{"type":"Feature","properties":{"id":null,"name":"M5: Postój dorożek / powozów"},"geometry":{"type":"Point","coordinates":[339624.04795087093953,5676058.516990158706903]}},
{"type":"Feature","properties":{"id":null,"name":"G2:Prison"},"geometry":{"type":"Point","coordinates":[339609.525587038835511,5675999.445660506375134]}},
{"type":"Feature","properties":{"id":null,"name":"ulica Warszawska"},"geometry":{"type":"Point","coordinates":[339751.975424637261312,5676239.675883492454886]}},
{"type":"Feature","properties":{"id":null,"name":"M6:Apteka Fredrichsona"},"geometry":{"type":"Point","coordinates":[339802.937218023464084,5676197.26122222468257]}},
{"type":"Feature","properties":{"id":null,"name":"H4:Żydowski klub nocny \"Wersal\""},"geometry":{"type":"Point","coordinates":[339799.322347898618318,5676157.604047457687557]}},
{"type":"Feature","properties":{"id":null,"name":"I4: Plac Giełdowy"},"geometry":{"type":"Point","coordinates":[339941.482858220697381,5676185.826188068836927]}},
{"type":"Feature","properties":{"id":null,"name":"H1:Kino \"Oazis\""},"geometry":{"type":"Point","coordinates":[340064.563470751629211,5676118.777395052835345]}},
{"type":"Feature","properties":{"id":null,"name":"B1: Żydowska Szkoła Ludowa"},"geometry":{"type":"Point","coordinates":[339891.824882487650029,5676016.177735284902155]}},
{"type":"Feature","properties":{"id":null,"name":"E1:Szkoła Wysza"},"geometry":{"type":"Point","coordinates":[339798.588483090687077,5676463.927404182031751]}},
{"type":"Feature","properties":{"id":null,"name":"ulica Królowej Aldony"},"geometry":{"type":"Point","coordinates":[339817.398898643266875,5676406.716681993566453]}},
{"type":"Feature","properties":{"id":null,"name":"L4: Dom Siskinda"},"geometry":{"type":"Point","coordinates":[339832.095612779608928,5676353.05764568131417]}},
{"type":"Feature","properties":{"id":null,"name":"D2: Sztab \"Beitaru\" i \"Bundu\""},"geometry":{"type":"Point","coordinates":[339901.461062489659525,5676477.307972981594503]}},
{"type":"Feature","properties":{"id":null,"name":"D7:Szpital Polski"},"geometry":{"type":"Point","coordinates":[341106.741662575630471,5675283.25554087664932]}},
{"type":"Feature","properties":{"id":null,"name":"Ulica Szpitalna"},"geometry":{"type":"Point","coordinates":[341080.89469340920914,5675331.339098982512951]}},
{"type":"Feature","properties":{"id":null,"name":"F4: Cmentarz Chrzescijanski"},"geometry":{"type":"Point","coordinates":[340619.913354669930413,5675610.053722715936601]}},
{"type":"Feature","properties":{"id":null,"name":"E2: Polska Szkola Ludowa im:"},"geometry":{"type":"Point","coordinates":[340296.712213338469155,5675981.040458489209414]}},
{"type":"Feature","properties":{"id":null,"name":"M2:Fabryka Tytonia"},"geometry":{"type":"Point","coordinates":[340205.74923287902493,5675943.310822639614344]}},
{"type":"Feature","properties":{"id":null,"name":"C2:Przytułek dla seniorów"},"geometry":{"type":"Point","coordinates":[340182.342882418772206,5675810.763728152960539]}},
{"type":"Feature","properties":{"id":null,"name":"D1: Sztab \"Haszomer Hacair\""},"geometry":{"type":"Point","coordinates":[340299.517952733323909,5675850.575593613088131]}},
{"type":"Feature","properties":{"id":null,"name":"F2: Cerkiew prawosławna"},"geometry":{"type":"Point","coordinates":[340341.499949418706819,5676003.087934590876102]}},
{"type":"Feature","properties":{"id":null,"name":"D9: Oddział \"Hechaluc\" i sztab."},"geometry":{"type":"Point","coordinates":[340368.727352481451817,5675910.58226964995265]}},
{"type":"Feature","properties":{"id":null,"name":"M1: Młyn Armarnika"},"geometry":{"type":"Point","coordinates":[340445.487440218974371,5675865.26234148722142]}},
{"type":"Feature","properties":{"id":null,"name":"K6: Park i miejsce spacerowe"},"geometry":{"type":"Point","coordinates":[340571.541325585334562,5675799.974000334739685]}},
{"type":"Feature","properties":{"id":null,"name":"J2: Targ Dla wozów wiejskich"},"geometry":{"type":"Point","coordinates":[340110.391676885832567,5675645.922208555042744]}},
{"type":"Feature","properties":{"id":null,"name":"F5: Plebania / Mieszkania ksiedzia"},"geometry":{"type":"Point","coordinates":[339961.182330891257152,5675688.503329745493829]}},
{"type":"Feature","properties":{"id":null,"name":"F3: Koscioł Katolicki"},"geometry":{"type":"Point","coordinates":[339894.592131288780365,5675859.418499724939466]}},
{"type":"Feature","properties":{"id":null,"name":"B6: Żydowskie Przedszkole"},"geometry":{"type":"Point","coordinates":[339825.703030009113718,5675894.49250010214746]}},
{"type":"Feature","properties":{"id":null,"name":"C1:Dom Sierot"},"geometry":{"type":"Point","coordinates":[339682.882674888242036,5675955.318303380161524]}},
{"type":"Feature","properties":{"id":null,"name":"M5: Postój dorozek / powoczów"},"geometry":{"type":"Point","coordinates":[339968.749269954336341,5676060.967677623964846]}},
{"type":"Feature","properties":{"id":null,"name":"C6:Łaznia"},"geometry":{"type":"Point","coordinates":[340002.234053352440242,5676254.032980351708829]}},
{"type":"Feature","properties":{"id":null,"name":"A2:Synagoga na Piaskach"},"geometry":{"type":"Point","coordinates":[339998.97232541476842,5676234.11830829270184]}},
{"type":"Feature","properties":{"id":null,"name":"N2: Dom nauczyciela"},"geometry":{"type":"Point","coordinates":[340227.726985026965849,5676253.327051250264049]}},
{"type":"Feature","properties":{"id":null,"name":"G4: Nowa remicza strażnica"},"geometry":{"type":"Point","coordinates":[340289.490258166217245,5676099.699644297361374]}},
{"type":"Feature","properties":{"id":null,"name":"M4: Elektrownia stara"},"geometry":{"type":"Point","coordinates":[340137.698056916939095,5676084.409764299169183]}},
{"type":"Feature","properties":{"id":null,"name":"H3: Polski Klub Nocny \"Resur."},"geometry":{"type":"Point","coordinates":[340097.729811493307352,5676081.441076144576073]}},
{"type":"Feature","properties":{"id":null,"name":"N3: Dom Żydowski"},"geometry":{"type":"Point","coordinates":[340139.823597475187853,5676186.534383242018521]}},
{"type":"Feature","properties":{"id":null,"name":"A4: Turyjski Dom Modlitwy"},"geometry":{"type":"Point","coordinates":[340106.340350136044435,5676256.055014695972204]}},
{"type":"Feature","properties":{"id":null,"name":"N6: Dom Żydowski"},"geometry":{"type":"Point","coordinates":[340615.913282204710413,5676253.544153043068945]}},
{"type":"Feature","properties":{"id":null,"name":"B5: Gimnazjum Żydowsko-Polski"},"geometry":{"type":"Point","coordinates":[340600.637541141477413,5676127.335959387943149]}},
{"type":"Feature","properties":{"id":null,"name":"A11: Synagoga M. Entina"},"geometry":{"type":"Point","coordinates":[340521.195644262596034,5676094.775269756093621]}},
{"type":"Feature","properties":{"id":null,"name":"D8: Dzielnica mieszkaniowa nicwa p."},"geometry":{"type":"Point","coordinates":[340541.958180591987912,5676363.471757239662111]}},
{"type":"Feature","properties":{"id":null,"name":"M3: Elektrownia (nowa)"},"geometry":{"type":"Point","coordinates":[340405.300134987279307,5676462.312184417620301]}},
{"type":"Feature","properties":{"id":null,"name":"L3: Budynek polskiego Ministerstwa"},"geometry":{"type":"Point","coordinates":[340234.940218185598496,5676369.072634850628674]}},
{"type":"Feature","properties":{"id":null,"name":"J5: Plac na ktorym staly na"},"geometry":{"type":"Point","coordinates":[340138.207946713024285,5676693.99733155593276]}},
{"type":"Feature","properties":{"id":null,"name":"M5: Postój dorożek / powozów"},"geometry":{"type":"Point","coordinates":[340065.426478064444382,5676697.055925532244146]}},
{"type":"Feature","properties":{"id":null,"name":"H3: Polski Klub Nocny \"resur\""},"geometry":{"type":"Point","coordinates":[340086.47191084746737,5676602.778031771071255]}},
{"type":"Feature","properties":{"id":null,"name":"L2: Tunel dla pieszych i samochodow"},"geometry":{"type":"Point","coordinates":[340168.515785052441061,5676923.786266018636525]}},
{"type":"Feature","properties":{"id":null,"name":"J4: Boisko do gry w piłke nożną"},"geometry":{"type":"Point","coordinates":[340014.69535166665446,5676971.110404780134559]}},
{"type":"Feature","properties":{"id":null,"name":"Okolica Piaski"},"geometry":{"type":"Point","coordinates":[339639.243829654413275,5677113.40394223574549]}},
{"type":"Feature","properties":{"id":null,"name":"K4: Ugór / Nieuczytki"},"geometry":{"type":"Point","coordinates":[339728.242388862534426,5676970.44077233877033]}},
{"type":"Feature","properties":{"id":null,"name":"E3: Polska Gimnazjum im. Piro"},"geometry":{"type":"Point","coordinates":[339843.539820970967412,5676674.526868904009461]}},
{"type":"Feature","properties":{"id":null,"name":"L5: Sztab Lokalnego SS"},"geometry":{"type":"Point","coordinates":[339801.017299269908108,5676806.651265730150044]}},
{"type":"Feature","properties":{"id":null,"name":"A6: Synagoga im. Prozanskiego"},"geometry":{"type":"Point","coordinates":[339551.384576313896105,5676227.508526796475053]}},
{"type":"Feature","properties":{"id":null,"name":"B3: Gimnazjum Żydowskie \"tarbuk\""},"geometry":{"type":"Point","coordinates":[339377.981104705249891,5676347.150542402639985]}},
{"type":"Feature","properties":{"id":null,"name":"Rynek Miejski"},"geometry":{"type":"Point","coordinates":[339831.789190834271722,5676281.210957446135581]}},
{"type":"Feature","properties":{"id":null,"name":"J6: Wieża ciśnień"},"geometry":{"type":"Point","coordinates":[339512.715928277466446,5677640.266501914709806]}}
]
}
